NORAD_CAT_ID,OBJECT_NAME,OBJECT_TYPE,EPOCH,MEAN_MOTION,ECCENTRICITY,INCLINATION,RA_OF_ASC_NODE,ARG_OF_PERICENTER,MEAN_ANOMALY,BSTAR,MEAN_MOTION_DOT,MEAN_MOTION_DDOT,TLE_LINE0,TLE_LINE1,TLE_LINE2,SEMIMAJOR_AXIS,PERIOD,APOGEE,PERIGEE,DECAYED
50181.0,STARLINK-3285,PAYLOAD,2022-06-24 09:23:30,15.0884352,0.0002517,53.2165,208.7977,33.3281,326.7869,0.00010829,1.436e-05,0.0,0 STARLINK-3285,1 50181U 21125AB  22175.39132931  .00001436  00000-0  10829-3 0  9991,2 50181  53.2165 208.7977 0002517  33.3281 326.7869 15.08843520 32152,6917.87,95.437,541.476,537.993,0.0
50181.0,STARLINK-3285,PAYLOAD,2022-06-24 18:55:49,15.08842494,0.000257,53.2165,207.0137,32.2178,327.8971,0.00016731,2.376e-05,0.0,0 STARLINK-3285,1 50181U 21125AB  22175.78876986  .00002376  00000-0  16731-3 0  9991,2 50181  53.2165 207.0137 0002570  32.2178 327.8971 15.08842494 32216,6917.873000000001,95.437,541.516,537.96,0.0
50181.0,STARLINK-3285,PAYLOAD,2022-06-25 02:52:45,15.08846392,0.0002573,53.2164,205.5269,32.9909,327.1244,0.00018061,2.588e-05,0.0,0 STARLINK-3285,1 50181U 21125AB  22176.11996768  .00002588  00000-0  18061-3 0  9993,2 50181  53.2164 205.5269 0002573  32.9909 327.1244 15.08846392 31773,6917.861,95.437,541.506,537.946,0.0
50181.0,STARLINK-3285,PAYLOAD,2022-06-25 10:49:41,15.08836109,0.0002616,53.2167,204.0401,32.9775,327.138,-4.2121e-07,-2.95e-06,0.0,0 STARLINK-3285,1 50181U 21125AB  22176.45117237 -.00000295  00000-0 -42121-6 0  9998,2 50181  53.2167 204.0401 0002616  32.9775 327.1380 15.08836109 31829,6917.892,95.438,541.567,537.948,0.0
50181.0,STARLINK-3285,PAYLOAD,2022-06-25 20:22:00,15.08832447,0.0002596,53.2175,202.2558,33.6003,326.5153,2.2581e-05,7.1e-07,0.0,0 STARLINK-3285,1 50181U 21125AB  22176.84862036  .00000071  00000-0  22581-4 0  9991,2 50181  53.2175 202.2558 0002596  33.6003 326.5153 15.08832447 32373,6917.903,95.438,541.564,537.9730000000002,0.0
50181.0,STARLINK-3285,PAYLOAD,2022-06-26 10:40:28,15.08835261,0.0002594,53.2173,199.5796,34.2233,325.8926,-1.8402e-05,-5.81e-06,0.0,0 STARLINK-3285,1 50181U 21125AB  22177.44477930 -.00000581  00000-0 -18402-4 0  9998,2 50181  53.2173 199.5796 0002594  34.2233 325.8926 15.08835261 32460,6917.895,95.438,541.554,537.965,0.0
50181.0,STARLINK-3285,PAYLOAD,2022-06-26 20:12:47,15.0883716,0.0002645,53.2174,197.7958,33.8328,326.2833,-1.4753e-05,-5.23e-06,0.0,0 STARLINK-3285,1 50181U 21125AB  22177.84221888 -.00000523  00000-0 -14753-4 0  9992,2 50181  53.2174 197.7958 0002645  33.8328 326.2833 15.08837160 32033,6917.889,95.438,541.5840000000002,537.924,0.0
50181.0,STARLINK-3285,PAYLOAD,2022-06-27 08:55:52,15.08838801,0.0002667,53.2174,195.4169,34.4901,325.6264,-1.5722e-05,-5.39e-06,0.0,0 STARLINK-3285,1 50181U 21125AB  22178.37213866 -.00000539  00000-0 -15722-4 0  9992,2 50181  53.2174 195.4169 0002667  34.4901 325.6264 15.08838801 32607,6917.884,95.438,541.594,537.904,0.0
50181.0,STARLINK-3285,PAYLOAD,2022-06-27 18:28:11,15.08832582,0.0002689,53.2173,193.6328,34.6737,325.443,7.5076e-05,9.06e-06,0.0,0 STARLINK-3285,1 50181U 21125AB  22178.76958093  .00000906  00000-0  75076-4 0  9997,2 50181  53.2173 193.6328 0002689  34.6737 325.4430 15.08832582 32665,6917.903,95.438,541.628,537.908,0.0
50181.0,STARLINK-3285,PAYLOAD,2022-06-28 02:25:07,15.08834539,0.0002709,53.2173,192.146,35.2786,324.8385,7.2257e-05,8.62e-06,0.0,0 STARLINK-3285,1 50181U 21125AB  22179.10078106  .00000862  00000-0  72257-4 0  9993,2 50181  53.2173 192.1460 0002709  35.2786 324.8385 15.08834539 32228,6917.897,95.438,541.636,537.888,0.0
50181.0,STARLINK-3285,PAYLOAD,2022-06-28 10:22:03,15.08835815,0.0002742,53.2173,190.6593,35.9388,324.1788,6.9843e-05,8.23e-06,0.0,0 STARLINK-3285,1 50181U 21125AB  22179.43198146  .00000823  00000-0  69843-4 0  9990,2 50181  53.2173 190.6593 0002742  35.9388 324.1788 15.08835815 32767,6917.893,95.438,541.655,537.861,0.0
50181.0,STARLINK-3285,PAYLOAD,2022-06-28 19:54:22,15.08837228,0.0002761,53.2173,188.8751,36.6504,323.4677,5.9377e-05,6.57e-06,0.0,0 STARLINK-3285,1 50181U 21125AB  22179.82942158  .00000657  00000-0  59377-4 0  9999,2 50181  53.2173 188.8751 0002761  36.6504 323.4677 15.08837228 32827,6917.889,95.438,541.664,537.844,0.0
50181.0,STARLINK-3285,PAYLOAD,2022-06-29 11:48:13,15.08839366,0.0002817,53.2172,185.9016,37.7859,322.3331,5.344e-05,5.62e-06,0.0,0 STARLINK-3285,1 50181U 21125AB  22180.49182087  .00000562  00000-0  53440-4 0  9991,2 50181  53.2172 185.9016 0002817  37.7859 322.3331 15.08839366 32926,6917.882,95.438,541.696,537.799,0.0
50181.0,STARLINK-3285,PAYLOAD,2022-06-30 06:52:50,15.08842638,0.0002873,53.2173,182.3333,38.9182,321.2017,4.8378e-05,4.82e-06,0.0,0 STARLINK-3285,1 50181U 21125AB  22181.28669778  .00000482  00000-0  48378-4 0  9991,2 50181  53.2173 182.3333 0002873  38.9182 321.2017 15.08842638 33043,6917.871999999999,95.437,541.725,537.75,0.0
50181.0,STARLINK-3285,PAYLOAD,2022-06-30 19:35:55,15.08843319,0.000291,53.2173,179.9545,39.7667,320.3538,4.694e-05,4.59e-06,0.0,0 STARLINK-3285,1 50181U 21125AB  22181.81661607  .00000459  00000-0  46940-4 0  9990,2 50181  53.2173 179.9545 0002910  39.7667 320.3538 15.08843319 33123,6917.87,95.437,541.748,537.722,0.0
50181.0,STARLINK-3285,PAYLOAD,2022-07-01 06:43:37,15.08845644,0.000294,53.2173,177.873,40.8664,319.2548,5.2268e-05,5.43e-06,0.0,0 STARLINK-3285,1 50181U 21125AB  22182.28029305  .00000543  00000-0  52268-4 0  9999,2 50181  53.2173 177.8730 0002940  40.8664 319.2548 15.08845644 33197,6917.863,95.437,541.762,537.694,0.0
50181.0,STARLINK-3285,PAYLOAD,2022-07-01 16:15:57,15.08831045,0.0002964,53.2174,176.0888,41.0453,319.0761,-6.9349e-05,-1.392e-05,0.0,0 STARLINK-3285,1 50181U 21125AB  22182.67774651 -.00001392  00000-0 -69349-4 0  9996,2 50181  53.2174 176.0888 0002964  41.0453 319.0761 15.08831045 33250,6917.908,95.438,541.823,537.722,0.0
50181.0,STARLINK-3285,PAYLOAD,2022-07-02 04:59:02,15.08832068,0.0002965,53.2173,173.7099,43.1688,316.9536,-7.0951e-05,-1.417e-05,0.0,0 STARLINK-3285,1 50181U 21125AB  22183.20766800 -.00001417  00000-0 -70951-4 0  9992,2 50181  53.2173 173.7099 0002965  43.1688 316.9536 15.08832068 33332,6917.905,95.438,541.821,537.7180000000002,0.0
50181.0,STARLINK-3285,PAYLOAD,2022-07-03 08:00:35,15.08836035,0.0003056,53.2174,168.6547,43.8853,316.2381,-2.1305e-05,-6.28e-06,0.0,0 STARLINK-3285,1 50181U 21125AB  22184.33374864 -.00000628  00000-0 -21305-4 0  9994,2 50181  53.2174 168.6547 0003056  43.8853 316.2381 15.08836035 33505,6917.893,95.438,541.872,537.643,0.0
50181.0,STARLINK-3285,PAYLOAD,2022-07-03 20:43:41,15.08832163,0.0003035,53.2174,166.2762,44.2907,315.8327,8.742899999999999e-05,1.103e-05,0.0,0 STARLINK-3285,1 50181U 21125AB  22184.86367045  .00001103  00000-0  87429-4 0  9991,2 50181  53.2174 166.2762 0003035  44.2907 315.8327 15.08832163 33581,6917.904,95.438,541.869,537.67,0.0
50181.0,STARLINK-3285,PAYLOAD,2022-07-04 04:40:36,15.08833857,0.0003053,53.2174,164.7894,45.1635,314.9605,9.5001e-05,1.223e-05,0.0,0 STARLINK-3285,1 50181U 21125AB  22185.19487152  .00001223  00000-0  95001-4 0  9998,2 50181  53.2174 164.7894 0003053  45.1635 314.9605 15.08833857 33140,6917.899,95.438,541.876,537.6519999999998,0.0
50181.0,STARLINK-3285,PAYLOAD,2022-07-04 07:51:23,15.08835374,0.0003064,53.2174,164.1947,45.553,314.5713,0.0001059,1.397e-05,0.0,0 STARLINK-3285,1 50181U 21125AB  22185.32735101  .00001397  00000-0  10590-3 0  9994,2 50181  53.2174 164.1947 0003064  45.5530 314.5713 15.08835374 33651,6917.895,95.438,541.879,537.64,0.0
50181.0,STARLINK-3285,PAYLOAD,2022-07-04 20:34:28,15.08840849,0.0003107,53.2175,161.8159,46.6528,313.4722,0.00010835,1.436e-05,0.0,0 STARLINK-3285,1 50181U 21125AB  22185.85726930  .00001436  00000-0  10835-3 0  9998,2 50181  53.2175 161.8159 0003107  46.6528 313.4722 15.08840849 33738,6917.878000000002,95.438,541.8919999999998,537.5930000000002,0.0
50181.0,STARLINK-3285,PAYLOAD,2022-07-05 06:06:46,15.08844497,0.0003138,53.2175,160.0316,47.6511,312.4747,0.00013702,1.893e-05,0.0,0 STARLINK-3285,1 50181U 21125AB  22186.25470747  .00001893  00000-0  13702-3 0  9998,2 50181  53.2175 160.0316 0003138  47.6511 312.4747 15.08844497 33796,6917.8669999999975,95.437,541.9019999999998,537.561,0.0
50181.0,STARLINK-3285,PAYLOAD,2022-07-05 20:25:14,15.08850321,0.0003168999999999,53.2175,157.3554,48.9437,311.1829,0.00015054,2.109e-05,0.0,0 STARLINK-3285,1 50181U 21125AB  22186.85086274  .00002109  00000-0  15054-3 0  9995,2 50181  53.2175 157.3554 0003169  48.9437 311.1829 15.08850321 33884,6917.849,95.437,541.906,537.5219999999998,0.0
50181.0,STARLINK-3285,PAYLOAD,2022-07-06 07:32:56,15.08851137,0.0003195,53.2176,155.2739,50.1215,310.0058,0.00016152,2.284e-05,0.0,0 STARLINK-3285,1 50181U 21125AB  22187.31454130  .00002284  00000-0  16152-3 0  9991,2 50181  53.2176 155.2739 0003195  50.1215 310.0058 15.08851137 33951,6917.846,95.437,541.922,537.501,0.0
50181.0,STARLINK-3285,PAYLOAD,2022-07-06 18:40:39,15.08842162,0.000329,53.2179,153.1938,48.9399,311.1877,4.7159e-05,4.62e-06,0.0,0 STARLINK-3285,1 50181U 21125AB  22187.77822953  .00000462  00000-0  47159-4 0  9991,2 50181  53.2179 153.1938 0003290  48.9399 311.1877 15.08842162 33539,6917.874,95.437,542.015,537.4630000000002,0.0
50181.0,STARLINK-3285,PAYLOAD,2022-07-07 04:12:57,15.08843668,0.0003164,53.2178,151.4084,53.3487,306.7796,3.6954e-05,3e-06,0.0,0 STARLINK-3285,1 50181U 21125AB  22188.17566681  .00000300  00000-0  36954-4 0  9991,2 50181  53.2178 151.4084 0003164  53.3487 306.7796 15.08843668 34082,6917.869000000002,95.437,541.923,537.545,0.0
50181.0,STARLINK-3285,PAYLOAD,2022-07-07 18:31:25,15.08851947,0.0003223,53.2178,148.7323,51.8728,308.2554,6.8951e-05,8.09e-06,0.0,0 STARLINK-3285,1 50181U 21125AB  22188.77181999  .00000809  00000-0  68951-4 0  9998,2 50181  53.2178 148.7323 0003223  51.8728 308.2554 15.08851947 33687,6917.844,95.437,541.938,537.479,0.0
